[{"OBJECT_NAME":"SINAH 1","OBJECT_ID":"2005-043D","EPOCH":"2026-03-09T23:01:58.936224","MEAN_MOTION":14.64073832,"ECCENTRICITY":0.00136586,"INCLINATION":98.2684,"RA_OF_ASC_NODE":202.7914,"ARG_OF_PERICENTER":223.4816,"MEAN_ANOMALY":136.531,"EPHEMERIS_TYPE":0,"CLASSIFICATION_TYPE":"U","NORAD_CAT_ID":28893,"ELEMENT_SET_NO":999,"REV_AT_EPOCH":8600,"BSTAR":0.00013062148,"MEAN_MOTION_DOT":6.37e-6,"MEAN_MOTION_DDOT":0},{"OBJECT_NAME":"CZ-6A DEB","OBJECT_ID":"2022-151TN","EPOCH":"2026-03-09T16:24:00.903456","MEAN_MOTION":14.62403786,"ECCENTRICITY":0.00032612,"INCLINATION":98.7555,"RA_OF_ASC_NODE":116.9074,"ARG_OF_PERICENTER":343.5008,"MEAN_ANOMALY":16.6085,"EPHEMERIS_TYPE":0,"CLASSIFICATION_TYPE":"U","NORAD_CAT_ID":54973,"ELEMENT_SET_NO":999,"REV_AT_EPOCH":17356,"BSTAR":0.0035826005,"MEAN_MOTION_DOT":0.00018118,"MEAN_MOTION_DDOT":0}]
